STARLINK-2199
1 17413C 21006A   21326.11129108  .01255758  00000-0  10390-1 0  3266
2 17413  97.4940  26.3412 0001756 209.1487 189.1269 15.68996190    13
